QIANFAN-81              
1 63167U 25046J   25299.97708862  .00000105  00000+0  14408-3 0  9999
2 63167  88.9773 324.7158 0012799 253.4542 106.5203 13.50990034 41174
QIANFAN-82              
1 63168U 25046K   25299.93633191  .00000070  00000+0  90022-4 0  9996
2 63168  88.9773 324.7637 0010874 262.5656  97.4260 13.50971821 41158
QIANFAN-83              
1 63169U 25046L   25299.90020764  .00000050  00000+0  48633-4 0  9999
2 63169  88.9774 324.6357 0012226 248.6108 111.3745 13.61966160 41222
QIANFAN-84              
1 63170U 25046M   25299.89047417 -.00000016  00000+0 -43651-4 0  9992
2 63170  88.9771 324.9011 0013920 259.0418 100.9167 13.50987651 41074
QIANFAN-85              
1 63171U 25046N   25299.96099959  .00000114  00000+0  15827-3 0  9999
2 63171  88.9773 324.7659 0011225 261.2412  98.7468 13.50975271 41150
QIANFAN-86              
1 63172U 25046P   25299.89520640  .00000112  00000+0  15557-3 0  9996
2 63172  88.9775 324.6337 0009082 266.3715  93.6398 13.50972871 41222
QIANFAN-87              
1 63173U 25046Q   25299.94044716  .00000015  00000+0  50811-5 0  9994
2 63173  88.9771 324.7425 0009764 260.3162  99.6886 13.50969330 41162
QIANFAN-88              
1 63174U 25046R   25299.88286253  .00000084  00000+0  11237-3 0  9995
2 63174  88.9774 324.7018 0010131 270.1281  89.8709 13.50970987 41182
